start=new Date('2022-09-05T00:00:00.000Z').valueOf();
sats=[{"RA_OF_ASC_NODE":"142.8691","TIME_SYSTEM":"UTC","MEAN_ANOMALY":"285.4630","ARG_OF_PERICENTER":"74.6526","LAUNCH_DATE":"2020-03-18","SITE":"AFETR","PERIOD":"95.591","EPOCH":"2022-09-04T10:34:08.628096","ECCENTRICITY":"0.00015100","INCLINATION":"53.0546","OBJECT_ID":"2020-019B","COUNTRY_CODE":"US","APOAPSIS":"548.218","FILE":"3557975","GP_ID":"211715310","TLE_LINE1":"1 45361U 20019B   22247.44037764  .00004219  00000-0  30183-3 0  9997","OBJECT_TYPE":"PAYLOAD","OBJECT_NAME":"STARLINK-1301","CENTER_NAME":"EARTH","DECAY_DATE":null,"NORAD_CAT_ID":"45361","MEAN_MOTION":"15.06413567","ELEMENT_SET_NO":"999","MEAN_MOTION_DOT":"0.00004219","EPHEMERIS_TYPE":"0","BSTAR":"0.00030183000000","MEAN_MOTION_DDOT":"0.0000000000000","REV_AT_EPOCH":"13674","TLE_LINE2":"2 45361  53.0546 142.8691 0001510  74.6526 285.4630 15.06413567136749","RCS_SIZE":"LARGE","SEMIMAJOR_AXIS":"6925.307","REF_FRAME":"TEME","MEAN_ELEMENT_THEORY":"SGP4","CLASSIFICATION_TYPE":"U","PERIAPSIS":"546.126"},{"RCS_SIZE":"LARGE","CLASSIFICATION_TYPE":"U","PERIAPSIS":"546.097","MEAN_ELEMENT_THEORY":"SGP4","REF_FRAME":"TEME","SEMIMAJOR_AXIS":"6925.296","ELEMENT_SET_NO":"999","MEAN_MOTION_DOT":"0.00004962","MEAN_MOTION":"15.06417167","REV_AT_EPOCH":"13647","TLE_LINE2":"2 45362  53.0547 162.6581 0001536  76.9526 283.1635 15.06417167136472","BSTAR":"0.00035163000000","MEAN_MOTION_DDOT":"0.0000000000000","EPHEMERIS_TYPE":"0","TLE_LINE1":"1 45362U 20019C   22247.48644580  .00004962  00000-0  35163-3 0  9990","CENTER_NAME":"EARTH","OBJECT_TYPE":"PAYLOAD","OBJECT_NAME":"STARLINK-1306","NORAD_CAT_ID":"45362","DECAY_DATE":null,"APOAPSIS":"548.225","COUNTRY_CODE":"US","OBJECT_ID":"2020-019C","GP_ID":"211727499","FILE":"3558277","INCLINATION":"53.0547","ECCENTRICITY":"0.00015360","EPOCH":"2022-09-04T11:40:28.917120","LAUNCH_DATE":"2020-03-18","PERIOD":"95.591","SITE":"AFETR","ARG_OF_PERICENTER":"76.9526","RA_OF_ASC_NODE":"162.6581","MEAN_ANOMALY":"283.1635","TIME_SYSTEM":"UTC"},{"MEAN_MOTION_DOT":"0.00000021","ELEMENT_SET_NO":"999","MEAN_MOTION":"15.06401573","REV_AT_EPOCH":"13682","TLE_LINE2":"2 45364  53.0532 134.3214 0001757  72.0660 288.0521 15.06401573136829","BSTAR":"0.00002032800000","MEAN_MOTION_DDOT":"0.0000000000000","EPHEMERIS_TYPE":"0","RCS_SIZE":"LARGE","PERIAPSIS":"545.992","CLASSIFICATION_TYPE":"U","MEAN_ELEMENT_THEORY":"SGP4","REF_FRAME":"TEME","SEMIMAJOR_AXIS":"6925.344","APOAPSIS":"548.426","COUNTRY_CODE":"US","OBJECT_ID":"2020-019E","GP_ID":"211714311","FILE":"3557975","TLE_LINE1":"1 45364U 20019E   22247.11693325  .00000021  00000-0  20328-4 0  9993","OBJECT_NAME":"STARLINK-1313","OBJECT_TYPE":"PAYLOAD","CENTER_NAME":"EARTH","NORAD_CAT_ID":"45364","DECAY_DATE":null,"LAUNCH_DATE":"2020-03-18","PERIOD":"95.592","SITE":"AFETR","INCLINATION":"53.0532","EPOCH":"2022-09-04T02:48:23.032800","ECCENTRICITY":"0.00017570","RA_OF_ASC_NODE":"134.3214","TIME_SYSTEM":"UTC","MEAN_ANOMALY":"288.0521","ARG_OF_PERICENTER":"72.0660"},{"ARG_OF_PERICENTER":"90.3486","MEAN_ANOMALY":"269.7660","TIME_SYSTEM":"UTC","RA_OF_ASC_NODE":"142.9134","ECCENTRICITY":"0.00013770","EPOCH":"2022-09-04T10:22:05.485152","INCLINATION":"52.9992","PERIOD":"95.641","SITE":"AFETR","LAUNCH_DATE":"2020-03-18","NORAD_CAT_ID":"45365","DECAY_DATE":null,"OBJECT_NAME":"STARLINK-1317","TLE_LINE1":"1 45365U 20019F   22247.43200793  .00009522  00000-0  67089-3 0  9991","OBJECT_TYPE":"PAYLOAD","CENTER_NAME":"EARTH","FILE":"3557975","GP_ID":"211714560","COUNTRY_CODE":"US","APOAPSIS":"550.531","OBJECT_ID":"2020-019F","MEAN_ELEMENT_THEORY":"SGP4","PERIAPSIS":"548.623","CLASSIFICATION_TYPE":"U","SEMIMAJOR_AXIS":"6927.712","REF_FRAME":"TEME","RCS_SIZE":"LARGE","MEAN_MOTION_DDOT":"0.0000000000000","BSTAR":"0.00067089000000","REV_AT_EPOCH":"13668","TLE_LINE2":"2 45365  52.9992 142.9134 0001377  90.3486 269.7660 15.05629247136684","EPHEMERIS_TYPE":"0","MEAN_MOTION":"15.05629247","ELEMENT_SET_NO":"999","MEAN_MOTION_DOT":"0.00009522"},{"TLE_LINE1":"1 45366U 20019G   22247.13996742  .00000605  00000-0  59516-4 0  9995","OBJECT_TYPE":"PAYLOAD","OBJECT_NAME":"STARLINK-1262","CENTER_NAME":"EARTH","NORAD_CAT_ID":"45366","DECAY_DATE":null,"APOAPSIS":"548.405","COUNTRY_CODE":"US","OBJECT_ID":"2020-019G","GP_ID":"211715811","FILE":"3557975","RCS_SIZE":"LARGE","PERIAPSIS":"545.995","CLASSIFICATION_TYPE":"U","MEAN_ELEMENT_THEORY":"SGP4","REF_FRAME":"TEME","SEMIMAJOR_AXIS":"6925.335","MEAN_MOTION":"15.06404414","ELEMENT_SET_NO":"999","MEAN_MOTION_DOT":"0.00000605","REV_AT_EPOCH":"13642","TLE_LINE2":"2 45366  53.0548 164.2034 0001740  72.8563 287.2616 15.06404414136421","MEAN_MOTION_DDOT":"0.0000000000000","BSTAR":"0.00005951600000","EPHEMERIS_TYPE":"0","ARG_OF_PERICENTER":"72.8563","RA_OF_ASC_NODE":"164.2034","MEAN_ANOMALY":"287.2616","TIME_SYSTEM":"UTC","INCLINATION":"53.0548","ECCENTRICITY":"0.00017400","EPOCH":"2022-09-04T03:21:33.185088","LAUNCH_DATE":"2020-03-18","PERIOD":"95.592","SITE":"AFETR"},{"RCS_SIZE":"LARGE","CLASSIFICATION_TYPE":"U","PERIAPSIS":"546.132","MEAN_ELEMENT_THEORY":"SGP4","REF_FRAME":"TEME","SEMIMAJOR_AXIS":"6925.327","ELEMENT_SET_NO":"999","MEAN_MOTION":"15.06407172","MEAN_MOTION_DOT":"0.00005403","TLE_LINE2":"2 45367  53.0544 162.6115 0001530  76.8239 283.2920 15.06407172136474","REV_AT_EPOCH":"13647","BSTAR":"0.00038127000000","MEAN_MOTION_DDOT":"0.0000000000000","EPHEMERIS_TYPE":"0","TLE_LINE1":"1 45367U 20019H   22247.49382452  .00005403  00000-0  38127-3 0  9997","CENTER_NAME":"EARTH","OBJECT_TYPE":"PAYLOAD","OBJECT_NAME":"STARLINK-1273","NORAD_CAT_ID":"45367","DECAY_DATE":null,"APOAPSIS":"548.251","COUNTRY_CODE":"US","OBJECT_ID":"2020-019H","GP_ID":"211715552","FILE":"3557975","INCLINATION":"53.0544","ECCENTRICITY":"0.00015300","EPOCH":"2022-09-04T11:51:06.438528","LAUNCH_DATE":"2020-03-18","PERIOD":"95.592","SITE":"AFETR","ARG_OF_PERICENTER":"76.8239","RA_OF_ASC_NODE":"162.6115","TIME_SYSTEM":"UTC","MEAN_ANOMALY":"283.2920"},{"RCS_SIZE":"LARGE","CLASSIFICATION_TYPE":"U","PERIAPSIS":"546.129","MEAN_ELEMENT_THEORY":"SGP4","REF_FRAME":"TEME","SEMIMAJOR_AXIS":"6925.336","MEAN_MOTION":"15.06404135","ELEMENT_SET_NO":"999","MEAN_MOTION_DOT":"0.00002967","REV_AT_EPOCH":"13647","TLE_LINE2":"2 45368  53.0551 162.7607 0001548  78.4513 281.6649 15.06404135136478","BSTAR":"0.00021797000000","MEAN_MOTION_DDOT":"0.0000000000000","EPHEMERIS_TYPE":"0","TLE_LINE1":"1 45368U 20019J   22247.46433145  .00002967  00000-0  21797-3 0  9998","OBJECT_NAME":"STARLINK-1276","OBJECT_TYPE":"PAYLOAD","CENTER_NAME":"EARTH","NORAD_CAT_ID":"45368","DECAY_DATE":null,"APOAPSIS":"548.273","COUNTRY_CODE":"US","OBJECT_ID":"2020-019J","GP_ID":"211691663","FILE":"3557812","INCLINATION":"53.0551","ECCENTRICITY":"0.00015480","EPOCH":"2022-09-04T11:08:38.237280","LAUNCH_DATE":"2020-03-18","PERIOD":"95.592","SITE":"AFETR","ARG_OF_PERICENTER":"78.4513","RA_OF_ASC_NODE":"162.7607","MEAN_ANOMALY":"281.6649","TIME_SYSTEM":"UTC"},{"ARG_OF_PERICENTER":"74.9026","MEAN_ANOMALY":"285.2130","TIME_SYSTEM":"UTC","RA_OF_ASC_NODE":"162.7453","ECCENTRICITY":"0.00015060","EPOCH":"2022-09-04T11:07:16.588416","INCLINATION":"53.0546","SITE":"AFETR","PERIOD":"95.591","LAUNCH_DATE":"2020-03-18","DECAY_DATE":null,"NORAD_CAT_ID":"45369","TLE_LINE1":"1 45369U 20019K   22247.46338644  .00005448  00000-0  38418-3 0  9992","OBJECT_NAME":"STARLINK-1277","OBJECT_TYPE":"PAYLOAD","CENTER_NAME":"EARTH","FILE":"3558274","GP_ID":"211727442","OBJECT_ID":"2020-019K","COUNTRY_CODE":"US","APOAPSIS":"548.202","SEMIMAJOR_AXIS":"6925.294","REF_FRAME":"TEME","MEAN_ELEMENT_THEORY":"SGP4","PERIAPSIS":"546.116","CLASSIFICATION_TYPE":"U","RCS_SIZE":"LARGE","EPHEMERIS_TYPE":"0","BSTAR":"0.00038418000000","MEAN_MOTION_DDOT":"0.0000000000000","REV_AT_EPOCH":"13647","TLE_LINE2":"2 45369  53.0546 162.7453 0001506  74.9026 285.2130 15.06417666136474","MEAN_MOTION_DOT":"0.00005448","MEAN_MOTION":"15.06417666","ELEMENT_SET_NO":"999"},{"MEAN_MOTION_DDOT":"0.0000000000000","BSTAR":"0.00010836000000","REV_AT_EPOCH":"13643","TLE_LINE2":"2 45370  53.0553 164.0027 0001749  71.1042 289.0137 15.06402582136438","EPHEMERIS_TYPE":"0","ELEMENT_SET_NO":"999","MEAN_MOTION_DOT":"0.00001333","MEAN_MOTION":"15.06402582","MEAN_ELEMENT_THEORY":"SGP4","PERIAPSIS":"545.994","CLASSIFICATION_TYPE":"U","SEMIMAJOR_AXIS":"6925.341","REF_FRAME":"TEME","RCS_SIZE":"LARGE","FILE":"3557975","GP_ID":"211715311","COUNTRY_CODE":"US","APOAPSIS":"548.417","OBJECT_ID":"2020-019L","NORAD_CAT_ID":"45370","DECAY_DATE":null,"TLE_LINE1":"1 45370U 20019L   22247.18789221  .00001333  00000-0  10836-3 0  9997","OBJECT_NAME":"STARLINK-1281","OBJECT_TYPE":"PAYLOAD","CENTER_NAME":"EARTH","PERIOD":"95.592","SITE":"AFETR","LAUNCH_DATE":"2020-03-18","ECCENTRICITY":"0.00017490","EPOCH":"2022-09-04T04:30:33.886944","INCLINATION":"53.0553","MEAN_ANOMALY":"289.0137","TIME_SYSTEM":"UTC","RA_OF_ASC_NODE":"164.0027","ARG_OF_PERICENTER":"71.1042"},{"ARG_OF_PERICENTER":"87.0845","MEAN_ANOMALY":"273.0307","TIME_SYSTEM":"UTC","RA_OF_ASC_NODE":"161.4794","INCLINATION":"53.0555","ECCENTRICITY":"0.00014270","EPOCH":"2022-09-04T17:55:57.209088","PERIOD":"95.591","SITE":"AFETR","LAUNCH_DATE":"2020-03-18","NORAD_CAT_ID":"45371","DECAY_DATE":null,"OBJECT_TYPE":"PAYLOAD","TLE_LINE1":"1 45371U 20019M   22247.74718992  .00004089  00000-0  29308-3 0  9992","OBJECT_NAME":"STARLINK-1287","CENTER_NAME":"EARTH","GP_ID":"211748877","FILE":"3558394","APOAPSIS":"548.150","COUNTRY_CODE":"US","OBJECT_ID":"2020-019M","PERIAPSIS":"546.173","CLASSIFICATION_TYPE":"U","MEAN_ELEMENT_THEORY":"SGP4","REF_FRAME":"TEME","SEMIMAJOR_AXIS":"6925.296","RCS_SIZE":"LARGE","TLE_LINE2":"2 45371  53.0555 161.4794 0001427  87.0845 273.0307 15.06417020136517","REV_AT_EPOCH":"13651","MEAN_MOTION_DDOT":"0.0000000000000","BSTAR":"0.00029308000000","EPHEMERIS_TYPE":"0","MEAN_MOTION":"15.06417020","MEAN_MOTION_DOT":"0.00004089","ELEMENT_SET_NO":"999"}];
